      2.10          N: GNSS NAV DATA                        RINEX VERSION / TYPE
fic2rin                                 11/30/2021 00:17:36 PGM / RUN BY / DATE
                                                            END OF HEADER
12 21 11 29  8  0  0.0-1.333043910563e-04-5.570655048359e-12 0.000000000000e+00
    1.300000000000e+01 3.534375000000e+01 4.576262048254e-09 1.064768160416e+00
    1.706182956696e-06 8.390932111070e-03 4.580244421959e-06 5.153642694473e+03
    1.152000000000e+05-1.117587089539e-07-2.567796644614e+00 2.607703208923e-08
    9.715104507613e-01 2.965312500000e+02 1.230279192124e+00-8.376420340101e-09
   -1.071473202588e-12 1.000000000000e+00 2.186000000000e+03 0.000000000000e+00
    2.400000000000e+00 0.000000000000e+00-1.257285475731e-08 1.300000000000e+01
    1.080000000000e+05 4.000000000000e+00
16 21 11 29  8  0  0.0-4.321369342506e-04-6.252776074689e-12 0.000000000000e+00
    3.000000000000e+01 2.168750000000e+01 4.583405202938e-09-8.056663535689e-01
    1.374632120132e-06 1.239527994767e-02 4.515051841736e-06 5.153559438705e+03
    1.152000000000e+05 1.695007085800e-07-2.549129998639e+00 1.639127731323e-07
    9.714860902494e-01 2.940625000000e+02 6.848678871308e-01-8.345347617226e-09
   -2.392956819114e-11 1.000000000000e+00 2.186000000000e+03 0.000000000000e+00
    2.400000000000e+00 0.000000000000e+00-1.024454832077e-08 3.000000000000e+01
    1.080000000000e+05 4.000000000000e+00
25 21 11 29  8  0  0.0 2.479762770236e-04 5.798028723802e-12 0.000000000000e+00
    3.000000000000e+01 4.196875000000e+01 4.856630869598e-09 8.690734670497e-01
    2.073124051094e-06 1.009642565623e-02 4.705041646957e-06 5.153745653152e+03
    1.152000000000e+05-7.264316082001e-08-2.643568836167e+00 9.499490261078e-08
    9.589602769790e-01 2.883750000000e+02 9.634800165129e-01-8.547498894781e-09
   -1.321483616526e-11 1.000000000000e+00 2.186000000000e+03 0.000000000000e+00
    2.400000000000e+00 0.000000000000e+00 5.587935447693e-09 3.000000000000e+01
    1.080000000000e+05 4.000000000000e+00
26 21 11 29  8  0  0.0 1.600491814315e-04 3.751665644813e-12 0.000000000000e+00
    3.300000000000e+01 3.568750000000e+01 5.292363305318e-09 2.223303281049e-01
    1.916661858559e-06 6.522863986902e-03 4.075467586517e-06 5.153657566071e+03
    1.152000000000e+05 9.126961231232e-08-2.689101437240e+00 3.166496753693e-08
    9.398512387251e-01 2.878125000000e+02 3.155011726102e-01-8.691076303928e-09
    3.571577341961e-11 1.000000000000e+00 2.186000000000e+03 0.000000000000e+00
    2.400000000000e+00 0.000000000000e+00 6.984919309616e-09 3.300000000000e+01
    1.080000000000e+05 4.000000000000e+00
17 21 11 29  8  0  0.0 5.404301919043e-04 5.343281372916e-12 0.000000000000e+00
    2.500000000000e+01-3.309375000000e+01 4.129100565041e-09-1.642185153500e+00
   -1.385807991028e-06 1.376538153272e-02 9.063631296158e-06 5.153711589813e+03
    1.152000000000e+05 5.029141902924e-08-1.530349924691e+00 3.147870302200e-07
    9.803827168296e-01 2.139375000000e+02-1.531060803399e+00-7.870684988479e-09
   -3.060841782060e-10 1.000000000000e+00 2.186000000000e+03 0.000000000000e+00
    2.400000000000e+00 0.000000000000e+00-1.117587089539e-08 2.500000000000e+01
    1.080000000000e+05 4.000000000000e+00
14 21 11 29  8  0  0.0-4.666345193982e-05-6.593836587854e-12 0.000000000000e+00
    8.300000000000e+01 3.462500000000e+01 4.986636284846e-09 1.037447899035e+00
    1.771375536919e-06 1.201168633997e-03 4.595145583153e-06 5.153639312744e+03
    1.152000000000e+05-1.117587089539e-08-2.597862895394e+00 4.656612873077e-08
    9.549592750298e-01 2.880312500000e+02 3.103693762400e+00-8.448209044674e-09
    3.035840740667e-11 1.000000000000e+00 2.186000000000e+03 0.000000000000e+00
    2.400000000000e+00 0.000000000000e+00-7.916241884232e-09 8.300000000000e+01
    1.080000000000e+05 4.000000000000e+00
10 21 11 29  8  0  0.0-2.569113858044e-04-8.753886504564e-12 0.000000000000e+00
    7.400000000000e+01-1.178125000000e+01 4.667694428209e-09 4.239716225427e-01
   -5.457550287247e-07 7.248514099047e-03 4.457309842110e-06 5.153674911499e+03
    1.152000000000e+05 2.048909664154e-08 4.997706469392e-01 2.607703208923e-08
    9.714614737269e-01 2.967812500000e+02-2.568888325287e+00-8.380349075177e-09
   -1.107188976008e-11 1.000000000000e+00 2.186000000000e+03 0.000000000000e+00
    2.400000000000e+00 0.000000000000e+00 2.328306436539e-09 7.400000000000e+01
    1.080000000000e+05 4.000000000000e+00
29 21 11 29  8  0  0.0-4.471242427826e-04-5.229594535194e-12 0.000000000000e+00
    9.200000000000e+01-3.725000000000e+01 4.076598378114e-09-1.604956988306e+00
   -1.939013600349e-06 1.827522879466e-03 8.450821042061e-06 5.153551536560e+03
    1.152000000000e+05-4.470348358154e-08-1.517504491616e+00 9.313225746155e-09
    9.823510731053e-01 2.334687500000e+02 2.372605104366e+00-7.904257815494e-09
   -2.182233755938e-10 1.000000000000e+00 2.186000000000e+03 0.000000000000e+00
    2.400000000000e+00 0.000000000000e+00-1.024454832077e-08 9.200000000000e+01
    1.080000000000e+05 4.000000000000e+00
15 21 11 29  8  0  0.0-1.029456034303e-04 2.842170943040e-12 0.000000000000e+00
    6.800000000000e+01-7.778125000000e+01 5.234503752378e-09-2.580134402691e+00
   -4.041939973831e-06 1.390709076077e-02 7.620081305504e-06 5.153707151413e+03
    1.152000000000e+05 1.341104507446e-07 1.427502272079e+00-1.024454832077e-07
    9.291985077276e-01 2.138437500000e+02 1.058395279646e+00-8.236771666030e-09
   -1.992940156814e-10 1.000000000000e+00 2.186000000000e+03 0.000000000000e+00
    2.400000000000e+00 0.000000000000e+00-1.071020960808e-08 6.800000000000e+01
    1.080000000000e+05 4.000000000000e+00
31 21 11 29  8  0  0.0-1.525338739157e-04-1.932676241267e-12 0.000000000000e+00
    8.000000000000e+01 6.096875000000e+01 4.484829668300e-09 1.302583578795e+00
    3.427267074585e-06 1.041482307483e-02 1.022033393383e-05 5.153654582977e+03
    1.152000000000e+05-1.490116119385e-07 2.621461873541e+00 1.173466444016e-07
    9.556229219648e-01 1.811875000000e+02 3.411298691312e-01-8.029263022462e-09
    4.607334771129e-11 1.000000000000e+00 2.186000000000e+03 0.000000000000e+00
    2.400000000000e+00 0.000000000000e+00-1.303851604462e-08 8.000000000000e+01
    1.080000000000e+05 4.000000000000e+00
32 21 11 29  8  0  0.0-2.816133201122e-05-5.115907697473e-12 0.000000000000e+00
    6.700000000000e+01-5.756250000000e+01 4.653765276575e-09-9.394267481748e-01
   -3.093853592873e-06 5.226281355135e-03 9.046867489815e-06 5.153745107651e+03
    1.152000000000e+05 1.322478055954e-07 1.542384569068e+00 1.303851604462e-07
    9.572989520981e-01 2.055937500000e+02-2.387896208776e+00-8.121409717885e-09
   -3.639437311458e-10 1.000000000000e+00 2.186000000000e+03 0.000000000000e+00
    2.400000000000e+00 0.000000000000e+00 4.656612873077e-10 6.700000000000e+01
    1.080000000000e+05 4.000000000000e+00
27 21 11 29  8  0  0.0-2.249586395919e-04-4.547473508865e-12 0.000000000000e+00
    9.100000000000e+01-2.662500000000e+01 4.261606084428e-09-1.666065908687e+00
   -1.562759280205e-06 9.752426529303e-03 7.856637239456e-06 5.153644449234e+03
    1.152000000000e+05 1.434236764908e-07-1.592329016541e+00-1.005828380585e-07
    9.740252508271e-01 2.328750000000e+02 6.279694658831e-01-7.898900449481e-09
   -1.814361289716e-10 1.000000000000e+00 2.186000000000e+03 0.000000000000e+00
    2.400000000000e+00 0.000000000000e+00 1.862645149231e-09 9.100000000000e+01
    1.080000000000e+05 4.000000000000e+00
22 21 11 29  8  0  0.0-4.534777253866e-04 8.981260180008e-12 0.000000000000e+00
    6.800000000000e+01-4.750000000000e+00 5.333793602484e-09-2.782518834644e+00
   -1.937150955200e-07 6.765819038264e-03 4.243105649948e-06 5.153668529510e+03
    1.152000000000e+05-5.960464477539e-08 3.966060209413e-01 8.195638656616e-08
    9.375188323596e-01 2.824062500000e+02-8.728165141169e-01-8.517497645108e-09
    1.610781381224e-10 1.000000000000e+00 2.186000000000e+03 0.000000000000e+00
    2.400000000000e+00 0.000000000000e+00-1.769512891769e-08 6.800000000000e+01
    1.080000000000e+05 4.000000000000e+00
13 21 11 29  8  0  0.0 2.217623405159e-04 5.684341886081e-12 0.000000000000e+00
    4.300000000000e+01-6.243750000000e+01 4.213032632577e-09-2.211490068341e+00
   -3.155320882797e-06 5.737183964811e-03 1.012533903122e-05 5.153680978775e+03
    1.152000000000e+05 9.313225746155e-09 1.683182472998e+00-1.024454832077e-07
    9.680008151994e-01 1.883125000000e+02 9.779087833803e-01-7.781395554930e-09
   -2.635824078367e-10 1.000000000000e+00 2.186000000000e+03 0.000000000000e+00
    2.400000000000e+00 0.000000000000e+00-1.117587089539e-08 4.300000000000e+01
    1.080000000000e+05 4.000000000000e+00
19 21 11 29  8  0  0.0 8.551497012377e-05 5.002220859751e-12 0.000000000000e+00
    9.000000000000e+01-4.343750000000e+01 4.154458764169e-09 7.328696774094e-01
   -2.313405275345e-06 8.938558283262e-03 9.026378393173e-06 5.153671146393e+03
    1.152000000000e+05-5.960464477539e-08-1.485369329423e+00-1.583248376846e-07
    9.790800599630e-01 2.176250000000e+02 1.978595648908e+00-8.068193215490e-09
   -2.957266039144e-10 1.000000000000e+00 2.186000000000e+03 0.000000000000e+00
    2.400000000000e+00 0.000000000000e+00-1.583248376846e-08 9.000000000000e+01
    1.080000000000e+05 4.000000000000e+00
20 21 11 29  8  0  0.0 5.178847350180e-04-2.273736754432e-13 0.000000000000e+00
    5.400000000000e+01 6.250000000000e+00 5.249504377214e-09-2.758965051889e+00
    2.607703208923e-07 5.461275228299e-03 4.814937710762e-06 5.153693592072e+03
    1.152000000000e+05-1.490116119385e-07 3.506901675160e-01 3.166496753693e-08
    9.408356114311e-01 2.746250000000e+02 3.046160035330e+00-8.512854594564e-09
    1.664355041354e-10 1.000000000000e+00 2.186000000000e+03 0.000000000000e+00
    2.400000000000e+00 0.000000000000e+00-8.381903171539e-09 5.400000000000e+01
    1.080000000000e+05 4.000000000000e+00
